<?xml version="1.0" encoding="UTF-8"?>
<kml xmlns="http://www.opengis.net/kml/2.2" xmlns:gx="http://www.google.com/kml/ext/2.2" xmlns:kml="http://www.opengis.net/kml/2.2" xmlns:atom="http://www.w3.org/2005/Atom">
<Folder name="Map Regions">
	<name>Map Regions</name>
	<Placemark>
		<name>SENAPA-Geo</name>
		<Style>
			<BalloonStyle>
				<text><![CDATA[<h2>SENAPA-Geo</h2> <b>Description:</b> rule<br/> <br/><br/>]]></text>
			</BalloonStyle>
			<LineStyle>
				<color>ff00ff00</color>
				<colorMode>normal</colorMode>
				<width>3</width>
			</LineStyle>
			<PolyStyle>
				<color>ffffffff</color>
				<colorMode>normal</colorMode>
				<fill>0</fill>
				<outline>1</outline>
			</PolyStyle>
		</Style>
		<Polygon>
			<extrude>1</extrude>
			<outerBoundaryIs>
				<LinearRing>
					<coordinates>
						35.2817213907838,-1.70019132735709,4.999999999999999 35.0902065541595,-1.5845400375701,4.999999999999999 34.8111463,-1.4264659,4.999999999999999 34.7866229899228,-1.41279865553233,4.999999999999999 34.7787265665829,-1.42116458860446,4.999999999999999 34.7353906,-1.4403632,4.999999999999999 34.7240911,-1.447451,4.999999999999999 34.7130252700299,-1.46285788197176,4.999999999999999 34.7048543,-1.4767902,4.999999999999999 34.69931172207,-1.48708277653193,4.999999999999999 34.6968139987439,-1.49800454156566,4.999999999999999 34.6972244,-1.4991672,4.999999999999999 34.6980827,-1.5023418,4.999999999999999 34.6984143555164,-1.50561459934255,4.999999999999999 34.6982802450657,-1.50795803942047,4.999999999999999 34.6993483090773,-1.51052229158499,4.999999999999999 34.6993273,-1.5122948,4.999999999999999 34.6985172014684,-1.51583908463976,4.999999999999999 34.6975677,-1.5183008,4.999999999999999 34.698941,-1.5202742,4.999999999999999 34.6991985,-1.5218186,4.999999999999999 34.6985977,-1.5234488,4.999999999999999 34.6977845393121,-1.52578841414326,4.999999999999999 34.6974734030664,-1.52748296854122,4.999999999999999 34.6971622668207,-1.52981029740301,4.999999999999999 34.6967331133783,-1.53096859838429,4.999999999999999 34.6964756213129,-1.53234139873683,4.999999999999999 34.6960602980107,-1.53390004626881,4.999999999999999 34.6959744673223,-1.53505834503823,4.999999999999999 34.6959799,-1.5364475,4.999999999999999 34.6966665,-1.5382493,4.999999999999999 34.6968811,-1.5406088,4.999999999999999 34.6968811,-1.5423248,4.999999999999999 34.6961945,-1.5441266,4.999999999999999 34.6962374,-1.5451991,4.999999999999999 34.694907,-1.5457997,4.999999999999999 34.6938340645284,-1.54605678951834,4.999999999999999 34.6938126068563,-1.54688797145638,4.999999999999999 34.6944778,-1.549103,4.999999999999999 34.694392,-1.5502184,4.999999999999999 34.6938341,-1.5521489,4.999999999999999 34.692152319476,-1.55337386060741,4.999999999999999 34.6902292,-1.5539506,4.999999999999999 34.6894567,-1.5544225,4.999999999999999 34.6880835,-1.5549373,4.999999999999999 34.6868389,-1.5551947,4.999999999999999 34.6854227,-1.5553234,4.999999999999999 34.6841352,-1.5556666,4.999999999999999 34.6831482,-1.5566962,4.999999999999999 34.6820324,-1.5572539,4.999999999999999 34.6810024,-1.5582191,4.999999999999999 34.6802943,-1.5588197,4.999999999999999 34.6775477,-1.5612006,4.999999999999999 34.6761744,-1.5624876,4.999999999999999 34.6644156,-1.558927,4.999999999999999 34.6634286,-1.5589484,4.999999999999999 34.6624415,-1.5587768,4.999999999999999 34.6612184,-1.5588841,4.999999999999999 34.6603172,-1.5590771,4.999999999999999 34.6598237,-1.5594418,4.999999999999999 34.6595447,-1.5598279,4.999999999999999 34.657871,-1.5635601,4.999999999999999 34.6578067,-1.5642251,4.999999999999999 34.6567338,-1.5658338,4.999999999999999 34.6503823,-1.5721829,4.999999999999999 34.64976,-1.5723545,4.999999999999999 34.649288,-1.5721614,4.999999999999999 34.6486872,-1.571904,4.999999999999999 34.6480434,-1.5714107,4.999999999999999 34.6472495,-1.5707886,4.999999999999999 34.646992,-1.5705098,4.999999999999999 34.6462624,-1.5701452,4.999999999999999 34.6448462,-1.5701237,4.999999999999999 34.643945,-1.5705956,4.999999999999999 34.6432584,-1.5716681,4.999999999999999 34.6428292,-1.5722687,4.999999999999999 34.6428292,-1.5741562,4.999999999999999 34.6433227,-1.574671,4.999999999999999 34.6438163,-1.5754432,4.999999999999999 34.6445244,-1.5759365,4.999999999999999 34.645093,-1.5767624,4.999999999999999 34.6451359,-1.5772021,4.999999999999999 34.645329,-1.5778241,4.999999999999999 34.6453398,-1.578918,4.999999999999999 34.6449643,-1.5801621,4.999999999999999 34.6442776,-1.5806072,4.999999999999999 34.6437841,-1.5814223,4.999999999999999 34.6420246,-1.5831597,4.999999999999999 34.6411019,-1.585133,4.999999999999999 34.6408444,-1.5863342,4.999999999999999 34.6412092,-1.5884791,4.999999999999999 34.6417241,-1.5900664,4.999999999999999 34.6418314,-1.5906241,4.999999999999999 34.6414237,-1.5918681,4.999999999999999 34.6410321,-1.5925492,4.999999999999999 34.6419226,-1.5933535,4.999999999999999 34.642325,-1.5936002,4.999999999999999 34.6431135,-1.5945654,4.999999999999999 34.6433657,-1.5951982,4.999999999999999 34.6443313,-1.5960508,4.999999999999999 34.6451466,-1.5970428,4.999999999999999 34.646241,-1.5978418,4.999999999999999 34.6474641,-1.5987909,4.999999999999999 34.6486442,-1.5998634,4.999999999999999 34.6494918,-1.6006785,4.999999999999999 34.6509992,-1.6027912,4.999999999999999 34.6526193,-1.6043356,4.999999999999999 34.6552908,-1.6075154,4.999999999999999 34.6576296,-1.6100303,4.999999999999999 34.6613096,-1.6138644,4.999999999999999 34.6632998,-1.6161004,4.999999999999999 34.6648823,-1.6179987,4.999999999999999 34.6656441,-1.6189639,4.999999999999999 34.6674465,-1.6208943,4.999999999999999 34.6683209,-1.6218005,4.999999999999999 34.6702629,-1.6232108,4.999999999999999 34.6736854,-1.6262459,4.999999999999999 34.6795755,-1.6320264,4.999999999999999 34.682483,-1.6349649,4.999999999999999 34.6849506,-1.6373243,4.999999999999999 34.6888667,-1.6416355,4.999999999999999 34.6937268,-1.6468368,4.999999999999999 34.6958082,-1.6492605,4.999999999999999 34.7004431,-1.6542367,4.999999999999999 34.7033506,-1.6575398,4.999999999999999 34.7039943,-1.6580867,4.999999999999999 34.7044664,-1.6584299,4.999999999999999 34.7072773,-1.6598991,4.999999999999999 34.7086935,-1.660564,4.999999999999999 34.7102707,-1.6615936,4.999999999999999 34.71111218445,-1.66232027595589,4.999999999999999 34.7122279834002,-1.66289402703891,4.999999999999999 34.7132748,-1.6635239,4.999999999999999 34.7165785264224,-1.66521047831277,4.999999999999999 34.7171479,-1.6658618,4.999999999999999 34.7212402056903,-1.67162360234707,4.999999999999999 34.7265187930316,-1.68131831861593,4.999999999999999 34.7280269,-1.684136,4.999999999999999 34.7334021,-1.6924753,4.999999999999999 34.7366743,-1.6974554,4.999999999999999 34.7376507,-1.6996753,4.999999999999999 34.7392278,-1.7025815,4.999999999999999 34.7398286,-1.703611,4.999999999999999 34.7411805,-1.70567,4.999999999999999 34.7463303,-1.7140777,4.999999999999999 34.7565763,-1.7158686,4.999999999999999 34.7602596,-1.7164079,4.999999999999999 34.7649985,-1.7198687,4.999999999999999 34.7699231,-1.7246261,4.999999999999999 34.7811668,-1.739472,4.999999999999999 34.7825401,-1.7408447,4.999999999999999 34.785674,-1.7460377,4.999999999999999 34.7864894,-1.7483541,4.999999999999999 34.7870462,-1.7507106,4.999999999999999 34.7878831,-1.7553178,4.999999999999999 34.7900933,-1.7599505,4.999999999999999 34.7911983,-1.7605819,4.999999999999999 34.7916328,-1.7613165,4.999999999999999 34.7917884,-1.7620309,4.999999999999999 34.7933548,-1.7643687,4.999999999999999 34.7954577,-1.7676931,4.999999999999999 34.7962945,-1.768937,4.999999999999999 34.7971528,-1.769752,4.999999999999999 34.7977322,-1.7700737,4.999999999999999 34.7981828,-1.7704383,4.999999999999999 34.7990733,-1.770807,4.999999999999999 34.7995561,-1.7711716,4.999999999999999 34.8004251,-1.771933,4.999999999999999 34.8008006,-1.7722064,4.999999999999999 34.80138,-1.7727976,4.999999999999999 34.8035043,-1.7741487,4.999999999999999 34.8053926,-1.7758002,4.999999999999999 34.8066913,-1.7771346,4.999999999999999 34.8076027,-1.7785026,4.999999999999999 34.808225,-1.7794248,4.999999999999999 34.8097485,-1.7816768,4.999999999999999 34.8107355,-1.7836928,4.999999999999999 34.8112913,-1.7851881,4.999999999999999 34.8136677,-1.7872979,4.999999999999999 34.8144262,-1.7884045,4.999999999999999 34.8150968,-1.7891713,4.999999999999999 34.8159336,-1.7906029,4.999999999999999 34.8164486,-1.7913696,4.999999999999999 34.8167836759239,-1.7917786598509,4.999999999999999 34.8169475,-1.7925492,4.999999999999999 34.8175937030464,-1.7946150472805,4.999999999999999 34.817779,-1.7950049,4.999999999999999 34.8187821,-1.7959218,4.999999999999999 34.820091,-1.7972354,4.999999999999999 34.8212659,-1.7992836,4.999999999999999 34.8215609,-1.7998251,4.999999999999999 34.8228883836418,-1.80219659811409,4.999999999999999 34.824712285772,-1.80552088909851,4.999999999999999 34.8262035939842,-1.8083197229231,4.999999999999999 34.8265683744103,-1.80884517400298,4.999999999999999 34.8270404431969,-1.80975667041323,4.999999999999999 34.827598342672,-1.81146170364443,4.999999999999999 34.8283469,-1.8139587,4.999999999999999 34.8284698091447,-1.81442893608398,4.999999999999999 34.8285663686692,-1.81465412866316,4.999999999999999 34.8286200128495,-1.81497583229905,4.999999999999999 34.8286843858659,-1.81527608897423,4.999999999999999 34.8287809453904,-1.81559779249946,4.999999999999999 34.8288560472429,-1.81583370838157,4.999999999999999 34.8288345895707,-1.81614468836094,4.999999999999999 34.8288453184068,-1.81631626349905,4.999999999999999 34.8287594877183,-1.81641277450707,4.999999999999999 34.8286414705217,-1.81654145584309,4.999999999999999 34.8285770975053,-1.81660579650767,4.999999999999999 34.8285341821611,-1.81672375438677,4.999999999999999 34.8284912668168,-1.81678809504487,4.999999999999999 34.8285878263414,-1.81691677635415,4.999999999999999 34.8286307416856,-1.816991840447,4.999999999999999 34.8285341821611,-1.81704545765426,4.999999999999999 34.8284483514726,-1.81713124518258,4.999999999999999 34.8285770975053,-1.81713124518258,4.999999999999999 34.8286521993577,-1.81723847958725,4.999999999999999 34.8286414705217,-1.817334990546,4.999999999999999 34.8288560472429,-1.81735643742503,4.999999999999999 34.8289526067674,-1.81744222493858,4.999999999999999 34.8289847932756,-1.81749584213246,4.999999999999999 34.8290277086198,-1.81762452339132,4.999999999999999 34.829059895128,-1.8177317577667,4.999999999999999 34.8290491662919,-1.81787116244515,4.999999999999999 34.8290169797837,-1.8179676733701,4.999999999999999 34.829070623964,-1.81811780146531,4.999999999999999 34.829070623964,-1.81824648267983,4.999999999999999 34.8290813528001,-1.81839661075182,4.999999999999999 34.8290920816362,-1.81848239821598,4.999999999999999 34.8292959295213,-1.81902929320385,4.999999999999999 34.8292100988328,-1.81954401774686,4.999999999999999 34.8291993699968,-1.81984427366243,4.999999999999999 34.8291779123246,-1.8202195934866,4.999999999999999 34.8292530141771,-1.82050912586903,4.999999999999999 34.8292100988328,-1.82077721136681,4.999999999999999 34.8291349969804,-1.82092733922817,4.999999999999999 34.8292852006852,-1.82103457340721,4.999999999999999 34.8293495737016,-1.82112036074583,4.999999999999999 34.8293603025377,-1.82119542466378,4.999999999999999 34.8292852006852,-1.8212490417461,4.999999999999999 34.8294032178819,-1.82129193541082,4.999999999999999 34.8293924890458,-1.82136699932162,4.999999999999999 34.8294783197343,-1.82136699932162,4.999999999999999 34.8294675908982,-1.82144206322932,4.999999999999999 34.8294890485704,-1.821581467621,4.999999999999999 34.8295641504228,-1.82172087200187,4.999999999999999 34.8295641504228,-1.82189244660967,4.999999999999999 34.8295641504228,-1.82229993623774,4.999999999999999 34.829596336931,-1.82247151079038,4.999999999999999 34.8296177946031,-1.82263236191863,4.999999999999999 34.82978945598,-1.82292189391328,4.999999999999999 34.8300957,-1.82315,4.999999999999999 34.8302137,-1.8232573,4.999999999999999 34.8303961,-1.8234717,4.999999999999999 34.830439,-1.8238363,4.999999999999999 34.8303639,-1.8239757,4.999999999999999 34.830321,-1.8245977,4.999999999999999 34.8302459,-1.8247907,4.999999999999999 34.8299723,-1.8264421,4.999999999999999 34.8299079,-1.826804,4.999999999999999 34.8299106,-1.8270212,4.999999999999999 34.8300018,-1.8273053,4.999999999999999 34.830177789554,-1.8284885242173,4.999999999999999 34.8302528914064,-1.82979677526322,4.999999999999999 34.8301134165376,-1.83197897877743,4.999999999999999 34.8298291023821,-1.83351777916607,4.999999999999999 34.8292191512883,-1.8356201563104,4.999999999999999 34.8284542,-1.8372298,4.999999999999999 34.8280266579241,-1.83920114194863,4.999999999999999 34.826979,-1.8411384,4.999999999999999 34.8255214747041,-1.84383896703457,4.999999999999999 34.824421769008,-1.84588711253368,4.999999999999999 34.822968011722,-1.84816044404186,4.999999999999999 34.8226354178041,-1.84854111955248,4.999999999999999 34.8225013073534,-1.84894324148207,4.999999999999999 34.8223671969026,-1.84940970280625,4.999999999999999 34.8221311625093,-1.85050883532659,4.999999999999999 34.821712737903,-1.85159724393152,4.999999999999999 34.8211939819157,-1.85228413392304,4.999999999999999 34.8205502517521,-1.85305620631755,4.999999999999999 34.8184565361589,-1.85533428710597,4.999999999999999 34.8228264413774,-1.85680753707858,4.999999999999999 34.8238564096391,-1.85938110383435,4.999999999999999 34.8214531503617,-1.86367037341874,4.999999999999999 34.8204231821,-1.86590078947499,4.999999999999999 34.8192215524614,-1.87070475290773,4.999999999999999 34.8207665048539,-1.87413614730714,4.999999999999999 34.8176766000688,-1.87636655006159,4.999999999999999 34.8200798593461,-1.87859694997164,4.999999999999999 34.8193932138383,-1.88271460385971,4.999999999999999 34.8187065683305,-1.88734695285553,4.999999999999999 34.8187065683305,-1.89077831452701,4.999999999999999 34.8180199228227,-1.89695474843177,4.999999999999999 34.8149300180375,-1.89952825605451,4.999999999999999 34.8181915841996,-1.8996998230931,4.999999999999999 34.8164749704301,-1.90158705939274,4.999999999999999 34.8183632455766,-1.90364586027478,4.999999999999999 34.8221397958696,-1.903817426904,4.999999999999999 34.8204231821,-1.90604779152929,4.999999999999999 34.8193932138383,-1.9074203221705,4.999999999999999 34.8202515207231,-1.90707718961282,4.999999999999999 34.8235130868852,-1.90759188842367,4.999999999999999 34.8266029916703,-1.90862128558333,4.999999999999999 34.8272896371782,-1.91050851210847,4.999999999999999 34.8291779123246,-1.91273886805561,4.999999999999999 34.8291779123246,-1.91496922110325,4.999999999999999 34.8296928964555,-1.91617017923445,4.999999999999999 34.8288345895707,-1.91891522322814,4.999999999999999 34.8290062509477,-1.91994461359014,4.999999999999999 34.8269463144242,-1.92543468504212,4.999999999999999 34.8302078805864,-1.92526312057668,4.999999999999999 34.8320961557328,-1.93041004702122,4.999999999999999 34.8317528329789,-1.93487070400268,4.999999999999999 34.8308945260942,-1.93813040745608,4.999999999999999 34.831581171602,-1.9405322901961,4.999999999999999 34.8307228647172,-1.9434488575079,4.999999999999999 34.8291779123246,-1.94396354533431,4.999999999999999 34.8286629281938,-1.94688010671857,4.999999999999999 34.8272896371782,-1.94911041496056,4.999999999999999 34.8247147165239,-1.95099759655009,4.999999999999999 34.8221397958696,-1.9535710225776,4.999999999999999 34.816989954561,-1.95648756730908,4.999999999999999 34.8120117746293,-1.96613786294722,4.999999999999999 34.7951889596879,-1.97025530545299,4.999999999999999 34.7907257638871,-1.97231402289009,4.999999999999999 34.7835159860551,-1.97780392359458,4.999999999999999 34.7790527902543,-1.98398004017167,4.999999999999999 34.7749329172075,-1.98775432228699,4.999999999999999 34.7701263986528,-1.98981301798666,4.999999999999999 34.7608566842973,-1.99221482638797,4.999999999999999 34.7557068429887,-1.99942023056174,4.999999999999999 34.7381973825395,-2.00250825124474,4.999999999999999 34.7344208322465,-2.00353759017972,4.999999999999999 34.7097447607666,-2.00416237114702,4.999999999999999 34.6884587500244,-2.00150324525665,4.999999999999999 34.6621140930802,-1.9982651103251,4.999999999999999 34.6615132782608,-2.00053823882637,4.999999999999999 34.6575650665909,-2.01374805520557,4.999999999999999 34.6543678734452,-2.02347307078125,4.999999999999999 34.6513852570206,-2.03549255186679,4.999999999999999 34.647911,-2.0501724,4.999999999999999 34.642332,-2.0714446,4.999999999999999 34.6423593722284,-2.07291307772346,4.999999999999999 34.6287552081049,-2.06698390284111,4.999999999999999 34.624360492453,-2.07601167572401,4.999999999999999 34.6677459776402,-2.12148239724482,4.999999999999999 34.6665891911834,-2.15157705274313,4.999999999999999 34.6842703130096,-2.17121829665365,4.999999999999999 34.7034105565399,-2.14934702648352,4.999999999999999 34.6878752019256,-2.13219286967973,4.999999999999999 34.675515582785,-2.13133515680735,4.999999999999999 34.6699208300561,-2.12376121313392,4.999999999999999 34.6243497636169,-2.07601167572401,4.999999999999999 34.6113052,-2.0839744,4.999999999999999 34.6042671,-2.0905789,4.999999999999999 34.5999756,-2.0951249,4.999999999999999 34.596199,-2.0984701,4.999999999999999 34.5927658,-2.0998425,4.999999999999999 34.5913067,-2.0995851,4.999999999999999 34.5885601,-2.0986416,4.999999999999999 34.5830669,-2.098127,4.999999999999999 34.5776596,-2.0999282,4.999999999999999 34.56427,-2.1004429,4.999999999999999 34.5459022,-2.1020726,4.999999999999999 34.5331255719066,-2.10009981028271,4.999999999999999 34.5246712490916,-2.09765527677183,4.999999999999999 34.5163456723094,-2.0943101194621,4.999999999999999 34.5046297833323,-2.09525362609361,4.999999999999999 34.4932022,-2.0980412,4.999999999999999 34.4854774,-2.1004429,4.999999999999999 34.479126,-2.0992421,4.999999999999999 34.4754352,-2.0994994,4.999999999999999 34.4677283708006,-2.09842249779683,4.999999999999999 34.4593169633299,-2.09867981716751,4.999999999999999 34.4500294,-2.1002713,4.999999999999999 34.4409313,-2.0979555,4.999999999999999 34.4366398,-2.0963258,4.999999999999999 34.4150963,-2.083374,4.999999999999999 34.4087448,-2.0825162,4.999999999999999 34.4009342,-2.0824304,4.999999999999999 34.395441,-2.0806292,4.999999999999999 34.3938961,-2.0806292,4.999999999999999 34.3913212,-2.0795999,4.999999999999999 34.3890037,-2.0784848,4.999999999999999 34.3872013,-2.0782275,4.999999999999999 34.3855705,-2.0782275,4.999999999999999 34.384798,-2.0784848,4.999999999999999 34.3835964,-2.0789137,4.999999999999999 34.3828239,-2.0795141,4.999999999999999 34.381794,-2.0795141,4.999999999999999 34.3808498,-2.0789995,4.999999999999999 34.3790474,-2.0787422,4.999999999999999 34.3777599,-2.0787422,4.999999999999999 34.3774166,-2.0794283,4.999999999999999 34.3763866,-2.0805434,4.999999999999999 34.3758716,-2.080715,4.999999999999999 34.3747988,-2.0802218,4.999999999999999 34.3742838,-2.0795785,4.999999999999999 34.3730821,-2.0790638,4.999999999999999 34.372374,-2.0788065,4.999999999999999 34.3709793,-2.0788065,4.999999999999999 34.3698635,-2.0794283,4.999999999999999 34.3683185,-2.0801789,4.999999999999999 34.3672027,-2.0804791,4.999999999999999 34.3656792,-2.0812296,4.999999999999999 34.3644132,-2.0818944,4.999999999999999 34.3623104,-2.0825377,4.999999999999999 34.3598428,-2.0836956,4.999999999999999 34.3578901,-2.0850465,4.999999999999999 34.35333089903,-2.08889717697118,4.999999999999999 34.3505301,-2.0917798,4.999999999999999 34.3425162322819,-2.09310008028855,4.999999999999999 34.3315299041569,-2.09164193143337,4.999999999999999 34.3192878,-2.0850894,4.999999999999999 34.3111768,-2.0805434,4.999999999999999 34.3073144,-2.0740246,4.999999999999999 34.3049969,-2.0696072,4.999999999999999 34.3036237,-2.0668624,4.999999999999999 34.3017354,-2.0625307,4.999999999999999 34.3003192,-2.0606866,4.999999999999999 34.2987313,-2.0598288,4.999999999999999 34.296328,-2.0598717,4.999999999999999 34.2946114,-2.0602148,4.999999999999999 34.2919936,-2.0604293,4.999999999999999 34.2906632,-2.0586709,4.999999999999999 34.28826,-2.0576844,4.999999999999999 34.2859967239201,-2.05799691645212,4.999999999999999 34.2825951,-2.0575987,4.999999999999999 34.2820802,-2.0581133,4.999999999999999 34.2815223,-2.059014,4.999999999999999 34.2804391868412,-2.05928354583327,4.999999999999999 34.2791619,-2.0592713,4.999999999999999 34.2773166,-2.058628,4.999999999999999 34.271523,-2.057084,4.999999999999999 34.2660727,-2.0554543,4.999999999999999 34.2629828,-2.0539961,4.999999999999999 34.2592492,-2.0524521,4.999999999999999 34.2569318,-2.0516373,4.999999999999999 34.2403133399785,-2.04881893012041,4.999999999999999 34.2240913398564,-2.04667453320211,4.999999999999999 34.1970173,-2.0437483,4.999999999999999 34.1678722389042,-2.04195684989028,4.999999999999999 34.146811,-2.0393284,4.999999999999999 34.1350522,-2.0370982,4.999999999999999 34.1219201,-2.0332383,4.999999999999999 34.1188302,-2.0312654,4.999999999999999 34.1141095,-2.030665,4.999999999999999 34.1026082,-2.0339245,4.999999999999999 34.0934243,-2.0365836,4.999999999999999 34.0850987,-2.0365836,4.999999999999999 34.0753467567265,-2.03835424603325,4.999999999999999 34.0671601,-2.0396715,4.999999999999999 34.0612705238163,-2.04221417842835,4.999999999999999 34.0566888,-2.0432741,4.999999999999999 34.0498223,-2.0442177,4.999999999999999 34.0443291,-2.0455043,4.999999999999999 34.038321,-2.0481634,4.999999999999999 34.0376344,-2.0505651,4.999999999999999 34.0356602,-2.0539103,4.999999999999999 34.0344586,-2.0543392,4.999999999999999 34.0336861,-2.0539103,4.999999999999999 34.0320554,-2.0527952,4.999999999999999 34.0305962,-2.0519375,4.999999999999999 34.0295663,-2.0503935,4.999999999999999 34.0277638,-2.0492784,4.999999999999999 34.0260472,-2.0485922,4.999999999999999 34.023644,-2.0487638,4.999999999999999 34.0218415,-2.0503077,4.999999999999999 34.0209832,-2.0509082,4.999999999999999 34.0172066,-2.0534814,4.999999999999999 34.0155759,-2.0557974,4.999999999999999 34.0113702,-2.058628,4.999999999999999 34.0057912,-2.0610297,4.999999999999999 33.9988389,-2.0623163,4.999999999999999 33.9960923,-2.0632598,4.999999999999999 33.9913716,-2.0642034,4.999999999999999 33.9846768,-2.0657473,4.999999999999999 33.9809003,-2.0654042,4.999999999999999 33.9781537,-2.0644607,4.999999999999999 33.9757504,-2.0643749,4.999999999999999 33.9717164,-2.0648038,4.999999999999999 33.9659657,-2.0661762,4.999999999999999 33.9615884,-2.0674628,4.999999999999999 33.9576402,-2.0705507,4.999999999999999 33.9560952,-2.0708938,4.999999999999999 33.9514603,-2.0711511,4.999999999999999 33.9475121,-2.0707222,4.999999999999999 33.9463105,-2.0701218,4.999999999999999 33.9418473,-2.0699503,4.999999999999999 33.9400449,-2.0712369,4.999999999999999 33.9383282,-2.0725235,4.999999999999999 33.9374699,-2.0738101,4.999999999999999 33.93541,-2.0754398,4.999999999999999 33.9319768,-2.0755256,4.999999999999999 33.9300568588078,-2.07596674583723,4.999999999999999 33.9271703,-2.0764691,4.999999999999999 33.9263978,-2.0782704,4.999999999999999 33.9241662,-2.0781846,4.999999999999999 33.9223964698613,-2.07869007928589,4.999999999999999 33.9206583984196,-2.07989091773952,4.999999999999999 33.916946221143,-2.08175650423824,4.999999999999999 33.9117534644902,-2.08109175527916,4.999999999999999 33.9081588,-2.0803719,4.999999999999999 33.9051547,-2.0811867,4.999999999999999 33.901979,-2.0816585,4.999999999999999 33.8988461,-2.0820445,4.999999999999999 33.8950267,-2.0823018,4.999999999999999 33.8916793,-2.083374,4.999999999999999 33.887774,-2.084103,4.999999999999999 33.8846841,-2.0847463,4.999999999999999 33.8812508,-2.0853468,4.999999999999999 33.8794484,-2.0859043,4.999999999999999 33.8769164,-2.0869336,4.999999999999999 33.874599,-2.0870193,4.999999999999999 33.8736977,-2.0877055,4.999999999999999 33.8718361593783,-2.09295731329564,4.999999999999999 33.8700980879366,-2.09718164902825,4.999999999999999 33.8641328550875,-2.09400803746102,4.999999999999999 33.8619227148592,-2.09345051044058,4.999999999999999 33.8584465719759,-2.09490865761344,4.999999999999999 33.854863140732,-2.09396515077419,4.999999999999999 33.853060696274,-2.09289298322184,4.999999999999999 33.8509149290621,-2.09297875665301,4.999999999999999 33.8500566221774,-2.09465133762273,4.999999999999999 33.8488979078829,-2.09310741679097,4.999999999999999 33.8457650877535,-2.09413669751449,4.999999999999999 33.843318913132,-2.09379360401508,4.999999999999999 33.8418597914279,-2.09490865761344,4.999999999999999 33.8391990400851,-2.09345051044058,4.999999999999999 33.837739918381,-2.09379360401508,4.999999999999999 33.8366241194308,-2.09559484404867,4.999999999999999 33.837568257004,-2.0979964942033,4.999999999999999 33.8383407332003,-2.09885422550786,4.999999999999999 33.835937473923,-2.09936886406473,4.999999999999999 33.8313884474337,-2.09911154480746,4.999999999999999 33.8295001722872,-2.10099855171005,4.999999999999999 33.8302726484835,-2.10417214908536,4.999999999999999 33.8284702040255,-2.10485833145279,4.999999999999999 33.8264102675021,-2.10099855171005,4.999999999999999 33.8230628706515,-2.10168473547309,4.999999999999999 33.8197154738009,-2.10374328495238,4.999999999999999 33.8168830610812,-2.10588760443761,4.999999999999999 33.8160247541964,-2.11154859369189,4.999999999999999 33.8184280134737,-2.11377867470878,4.999999999999999 33.8225478865206,-2.117895738936,4.999999999999999 33.8275260664523,-2.12544366158943,4.999999999999999 33.8294143415987,-2.13144766462702,4.999999999999999 33.8302726484835,-2.13899552093017,4.999999999999999 33.8307876326144,-2.14551409421944,4.999999999999999 33.8305929210037,-2.14990531908794,4.999999999999999 33.8308504130691,-2.15359343632732,4.999999999999999 33.8319662120193,-2.15805347315461,4.999999999999999 33.8330820109695,-2.16191310985042,4.999999999999999 33.8343694712967,-2.16568696735173,4.999999999999999 33.8352277781814,-2.17049004511986,4.999999999999999 33.8364294078201,-2.18043922905693,4.999999999999999 33.8335969951004,-2.18507072329785,4.999999999999999 33.8304212596267,-2.18961643523672,4.999999999999999 33.8322655297816,-2.19737500960142,4.999999999999999 33.8456551171839,-2.19883305766352,4.999999999999999 33.8631645776331,-2.2016419403547,4.999999999999999 33.8704601861537,-2.20234952065613,4.999999999999999 33.8829719368368,-2.20744621363563,4.999999999999999 33.8855449296534,-2.21714430436813,4.999999999999999 33.901990223676,-2.22513186501998,4.999999999999999 33.904696572572,-2.22801842314146,4.999999999999999 33.90775160864,-2.23112475002687,4.999999999999999 33.913888502866,-2.23717121390622,4.999999999999999 33.9195569325238,-2.24342351491741,4.999999999999999 33.9319344051182,-2.25052909351828,4.999999999999999 33.9429631,-2.2583133,4.999999999999999 33.946568,-2.2618297,4.999999999999999 33.9594426,-2.2684763,4.999999999999999 33.9720597,-2.273665,4.999999999999999 33.9789625,-2.2752189,4.999999999999999 33.9865156,-2.2745328,4.999999999999999 33.9934991486371,-2.27333422714501,4.999999999999999 34.0022538788617,-2.27230506913804,4.999999999999999 34.006907,-2.2718211,4.999999999999999 34.0129505284131,-2.27544614283995,4.999999999999999 34.0128646977246,-2.27681835036485,4.999999999999999 34.0112414,-2.2774815,4.999999999999999 34.0120568,-2.2785535,4.999999999999999 34.0155254490674,-2.28119225312646,4.999999999999999 34.0177570469677,-2.28170682904795,4.999999999999999 34.0208974,-2.281984,4.999999999999999 34.0235581,-2.2821127,4.999999999999999 34.0246739,-2.2821555,4.999999999999999 34.0258648,-2.2833026,4.999999999999999 34.0263476,-2.2839351,4.999999999999999 34.0267768,-2.2845676,4.999999999999999 34.0278818,-2.2853073,4.999999999999999 34.0301778,-2.2860899,4.999999999999999 34.0315404,-2.2863472,4.999999999999999 34.0330961,-2.2866581,4.999999999999999 34.0339544,-2.2866474,4.999999999999999 34.0347483,-2.2867867,4.999999999999999 34.0364113,-2.2874728,4.999999999999999 34.03688,-2.2880121,4.999999999999999 34.0369692,-2.288502,4.999999999999999 34.0374734,-2.289381,4.999999999999999 34.0377631,-2.2904102,4.999999999999999 34.0383177,-2.2916141,4.999999999999999 34.0393047,-2.2923967,4.999999999999999 34.0404849,-2.2937796,4.999999999999999 34.0410882,-2.2950069,4.999999999999999 34.0433628,-2.2986518,4.999999999999999 34.0456158,-2.3006458,4.999999999999999 34.0482336,-2.3028112,4.999999999999999 34.0507871,-2.3045908,4.999999999999999 34.053641,-2.3068849,4.999999999999999 34.0560525,-2.3081339,4.999999999999999 34.058563,-2.3083054,4.999999999999999 34.060065,-2.3084984,4.999999999999999 34.0623288,-2.3090559,4.999999999999999 34.0642278,-2.3096455,4.999999999999999 34.0652933,-2.309996,4.999999999999999 34.0686204,-2.3115268,4.999999999999999 34.0714314,-2.3125988,4.999999999999999 34.0734913,-2.313971,4.999999999999999 34.0768817,-2.3171656,4.999999999999999 34.0793588,-2.3195261,4.999999999999999 34.0823736,-2.3209733,4.999999999999999 34.087263,-2.32306,4.999999999999999 34.0898731,-2.3241572,4.999999999999999 34.0957054,-2.3285317,4.999999999999999 34.0992179,-2.3302247,4.999999999999999 34.1047754511237,-2.33414411005697,4.999999999999999 34.1140207,-2.3390113,4.999999999999999 34.1177758,-2.3410909,4.999999999999999 34.1200533136725,-2.34254851344502,4.999999999999999 34.1690692,-2.3719434,4.999999999999999 34.211845,-2.3862326,4.999999999999999 34.2132578976452,-2.38793059243604,4.999999999999999 34.215918648988,-2.38998873862852,4.999999999999999 34.2204676754773,-2.39247566116056,4.999999999999999 34.2265616543591,-2.39830704802412,4.999999999999999 34.2332564480603,-2.40319510315829,4.999999999999999 34.239693749696,-2.40979823756071,4.999999999999999 34.2461656685919,-2.42390937629677,4.999999999999999 34.2484667,-2.4287377,4.999999999999999 34.2556336,-2.4401,4.999999999999999 34.258981,-2.4455881,4.999999999999999 34.2627703,-2.4629079,4.999999999999999 34.2684653,-2.4855053,4.999999999999999 34.2719414,-2.4933514,4.999999999999999 34.2754175,-2.4992681,4.999999999999999 34.2755892,-2.5018835,4.999999999999999 34.2749026,-2.5032126,4.999999999999999 34.2743017,-2.5047561,4.999999999999999 34.2737009,-2.5072856,4.999999999999999 34.2743447,-2.5100296,4.999999999999999 34.2767479,-2.5186901,4.999999999999999 34.2805674,-2.5316809,4.999999999999999 34.2821543,-2.5430669,4.999999999999999 34.2880776,-2.554275,4.999999999999999 34.2899229,-2.5593768,4.999999999999999 34.2927553,-2.5654647,4.999999999999999 34.2940857,-2.5697091,4.999999999999999 34.2982485,-2.5782406,4.999999999999999 34.3028405,-2.5864291,4.999999999999999 34.3068316,-2.5973613,4.999999999999999 34.3087628,-2.6025059,4.999999999999999 34.3156721,-2.6249272,4.999999999999999 34.3224528,-2.6464479,4.999999999999999 34.3275597,-2.6622667,4.999999999999999 34.3292334,-2.6659963,4.999999999999999 34.329405,-2.6677539,4.999999999999999 34.3296196,-2.6699402,4.999999999999999 34.3297484,-2.6834438,4.999999999999999 34.3310358,-2.6893596,4.999999999999999 34.3318083,-2.6964757,4.999999999999999 34.3336108,-2.7085215,4.999999999999999 34.335027,-2.7128083,4.999999999999999 34.333997,-2.719667,4.999999999999999 34.3343832,-2.7209101,4.999999999999999 34.3371727,-2.7235679,4.999999999999999 34.3394472,-2.7252397,4.999999999999999 34.3441679,-2.728369,4.999999999999999 34.3497469,-2.7314554,4.999999999999999 34.3551113,-2.734156,4.999999999999999 34.3564846,-2.7352705,4.999999999999999 34.3592312,-2.7369851,4.999999999999999 34.3703034,-2.7457727,4.999999999999999 34.3748417,-2.7499736,4.999999999999999 34.3790474,-2.7538315,4.999999999999999 34.380131,-2.7547531,4.999999999999999 34.3864288,-2.7632084,4.999999999999999 34.3864395,-2.7636692,4.999999999999999 34.3857529,-2.7725208,4.999999999999999 34.385077,-2.7800115,4.999999999999999 34.3800988,-2.7939854,4.999999999999999 34.3780389,-2.7997292,4.999999999999999 34.3788113,-2.8184178,4.999999999999999 34.3828454,-2.8270762,4.999999999999999 34.3883385,-2.8380491,4.999999999999999 34.3921151,-2.8448213,4.999999999999999 34.3984035,-2.860711300000001,4.999999999999999 34.400163,-2.8699695,4.999999999999999 34.4035533,-2.8806419,4.999999999999999 34.4091752,-2.8836422,4.999999999999999 34.412972,-2.8857114,4.999999999999999 34.4204392,-2.8919691,4.999999999999999 34.4254174,-2.8963409,4.999999999999999 34.429194,-2.9000269,4.999999999999999 34.4302239,-2.9011412,4.999999999999999 34.4303098,-2.9023413,4.999999999999999 34.4303098,-2.9036271,4.999999999999999 34.4301381,-2.9046558,4.999999999999999 34.4309964,-2.9063702,4.999999999999999 34.4298806,-2.9073131,4.999999999999999 34.4268051534891,-2.90919209360599,4.999999999999999 34.4245735555887,-2.92226432872789,4.999999999999999 34.4230715185404,-2.93430779422343,4.999999999999999 34.424444809556,-2.95033697397101,4.999999999999999 34.4275776296854,-2.97553746257207,4.999999999999999 34.4274917989969,-2.98132320789117,4.999999999999999 34.4257322698832,-2.99049462328597,4.999999999999999 34.4253316,-2.994144299999999,4.999999999999999 34.4244877249002,-3.00178735882384,4.999999999999999 34.4256035238504,-3.01850125021239,4.999999999999999 34.4251599,-3.0349432,4.999999999999999 34.421555,-3.0479711,4.999999999999999 34.4200101,-3.0670841,4.999999999999999 34.4201817,-3.0696553,4.999999999999999 34.4260182,-3.085682499999999,4.999999999999999 34.42678,-3.09631,4.999999999999999 34.4281962,-3.103295,4.999999999999999 34.4286897,-3.1050305,4.999999999999999 34.4292047,-3.105759,4.999999999999999 34.433625,-3.1133224,4.999999999999999 34.4343545,-3.1139223,4.999999999999999 34.4358136,-3.1153578,4.999999999999999 34.4367578,-3.1165149,4.999999999999999 34.437895,-3.1179075,4.999999999999999 34.4383027,-3.1187217,4.999999999999999 34.440942,-3.1245067,4.999999999999999 34.4419505,-3.1298845,4.999999999999999 34.4422724,-3.1313415,4.999999999999999 34.443002,-3.1353267,4.999999999999999 34.4434311,-3.1392475,4.999999999999999 34.4439246,-3.1432969,4.999999999999999 34.443989,-3.1453538,4.999999999999999 34.4434526,-3.148481900000001,4.999999999999999 34.4429591,-3.1505815,4.999999999999999 34.4428947,-3.1509886,4.999999999999999 34.4427659,-3.1525955,4.999999999999999 34.4426157,-3.1531311,4.999999999999999 34.4425299,-3.1536882,4.999999999999999 34.4424012,-3.1542238,4.999999999999999 34.4419076,-3.157437600000001,4.999999999999999 34.4416072,-3.161529799999999,4.999999999999999 34.441693,-3.1650006,4.999999999999999 34.4422509,-3.1683643,4.999999999999999 34.4424441,-3.1697141,4.999999999999999 34.4424012,-3.170464,4.999999999999999 34.4425299,-3.1711496,4.999999999999999 34.4429376,-3.172735,4.999999999999999 34.443002,-3.1761415,4.999999999999999 34.4432916,-3.1842722,4.999999999999999 34.4434204,-3.1870895,4.999999999999999 34.4432702,-3.187593,4.999999999999999 34.4419613,-3.1883428,4.999999999999999 34.4403305,-3.1900568,4.999999999999999 34.429945,-3.1987122,4.999999999999999 34.427885,-3.1999977,4.999999999999999 34.4263401,-3.2021401,4.999999999999999 34.4249668,-3.2040254,4.999999999999999 34.4230785,-3.2059964,4.999999999999999 34.4205894,-3.2078818,4.999999999999999 34.4162979,-3.2112239,4.999999999999999 34.4143238,-3.2127664,4.999999999999999 34.380764,-3.2143946,4.999999999999999 34.3781032,-3.2149945,4.999999999999999 34.3729534,-3.2166227,4.999999999999999 34.368061,-3.2177368,4.999999999999999 34.3625679,-3.2191936,4.999999999999999 34.3588772,-3.2216787,4.999999999999999 34.354929,-3.2245924,4.999999999999999 34.3527832,-3.2268204,4.999999999999999 34.3469467,-3.2302482,4.999999999999999 34.3391361,-3.2360754,4.999999999999999 34.3300381,-3.2394175,4.999999999999999 34.3266907,-3.2419026,4.999999999999999 34.3233433,-3.244901800000001,4.999999999999999 34.321455,-3.2485009,4.999999999999999 34.3177643,-3.2550136,4.999999999999999 34.2723598,-3.2924604,4.999999999999999 34.2691841,-3.2993155,4.999999999999999 34.2665233,-3.3035999,4.999999999999999 34.2652359,-3.3114832,4.999999999999999 34.2696132,-3.3190236,4.999999999999999 34.2756214,-3.3260499,4.999999999999999 34.2836036,-3.3324763,4.999999999999999 34.2799129,-3.3608378,4.999999999999999 34.2812862,-3.3731761,4.999999999999999 34.2764797,-3.385514300000001,4.999999999999999 34.277853,-3.4012794,4.999999999999999 34.277853,-3.4211568,4.999999999999999 34.299139,-3.428011,4.999999999999999 34.3355312,-3.417729700000001,4.999999999999999 34.3561306,-3.4108755,4.999999999999999 34.3852572329342,-3.410844869970159,4.999999999999999 34.4024233706295,-3.40861722257616,4.999999999999999 34.4204478152096,-3.40878858025121,4.999999999999999 34.4379572756588,-3.41255844137614,4.999999999999999 34.444823730737,-3.41392929630071,4.999999999999999 34.4681696780026,-3.4034764781379,4.999999999999999 34.4794993288815,-3.39730754860654,4.999999999999999 34.5023946650326,-3.389489230578819,4.999999999999999 34.5171575434506,-3.38177795090305,4.999999999999999 34.5353536494076,-3.3771511536511,4.999999999999999 34.5547513850033,-3.36978250511476,4.999999999999999 34.570544231683,-3.3677261281172,4.999999999999999 34.5966367609799,-3.367383398195281,4.999999999999999 34.6268491633236,-3.36464155447838,4.999999999999999 34.6556882746518,-3.34819033040195,4.999999999999999 34.7037534601986,-3.33722269407174,4.999999999999999 34.7230439074337,-3.33805812380782,4.999999999999999 34.8401384241879,-3.34707643543411,4.999999999999999 34.8569826968014,-3.32739027538957,4.999999999999999 34.9175966810435,-2.96968660029684,4.999999999999999 34.9854738,-2.995105,4.999999999999999 34.9850018,-3.0136189,4.999999999999999 34.9980909,-3.0174759,4.999999999999999 35.0099888,-3.021175899999999,4.999999999999999 35.0169737,-3.0246757,4.999999999999999 35.0186045,-3.02339,4.999999999999999 35.0147953,-3.0170617,4.999999999999999 35.012392,-3.0132904,4.999999999999999 35.0099888,-3.0112333,4.999999999999999 35.0089588,-3.0084905,4.999999999999999 35.0093021,-3.0033478,4.999999999999999 35.0086155,-2.9988907,4.999999999999999 35.0068989,-2.9951193,4.999999999999999 35.0075855,-2.986547900000001,4.999999999999999 35.0106754,-2.9820908,4.999999999999999 35.0158253,-2.978319299999999,4.999999999999999 35.025095,-2.9769479,4.999999999999999 35.0340214,-2.974205,4.999999999999999 35.0412311,-2.9731764,4.999999999999999 35.0508442,-2.9680335,4.999999999999999 35.0568523,-2.9625477,4.999999999999999 35.0648346,-2.9574904,4.999999999999999 35.0692978,-2.9525189,4.999999999999999 35.0796833,-2.9504617,4.999999999999999 35.095047,-2.9468616,4.999999999999999 35.1342988,-2.931544,4.999999999999999 35.1367607,-2.9277465,4.999999999999999 35.1466584,-2.9123429,4.999999999999999 35.1890159491449,-2.70477139629219,4.999999999999999 35.2013755682856,-2.65401518022258,4.999999999999999 35.2089286688715,-2.60943029663829,4.999999999999999 35.2178550604731,-2.5586701982136,4.999999999999999 35.225408161059,-2.51511094253846,4.999999999999999 35.1680764462799,-2.39626095571891,4.999999999999999 35.2655801083893,-2.36058614920839,4.999999999999999 35.244809333235,-2.15282088705632,4.999999999999999 35.2571689523757,-2.02656216091406,4.999999999999999 35.2664386667311,-1.88897013179869,4.999999999999999 35.274335090071,-1.80387030483624,4.999999999999999 35.2800047770143,-1.71803616829559,4.999999999999999 35.2813780680299,-1.70122084191205,4.999999999999999 35.2817213907838,-1.70019132735709,4.999999999999999 
					</coordinates>
				</LinearRing>
			</outerBoundaryIs>
		</Polygon>
	</Placemark>
	<atom:link rel="app" href="https://www.google.com/earth/about/versions/#earth-pro" title="Google Earth Pro 7.3.7.1155"></atom:link>
</Folder>
</kml>
